{
  "norad_id": 57438,
  "name": "STARLINK-30158",
  "history": [
    {
      "epoch": "2026-03-28T14:30:44.547264Z",
      "apogee_km": 483.99670859212347,
      "perigee_km": 482.09341668794787,
      "latitude_deg": 6.334493933034534e-06,
      "longitude_deg": 109.39905531171986,
      "height_km": 482.7713673625867,
      "semi_major_axis_km": 6861.182062640036,
      "eccentricity": 0.0001387,
      "inclination_deg": 43.0022,
      "raan_deg": 153.1074,
      "arg_perigee_deg": 273.0501,
      "mean_anomaly_deg": 87.0192,
      "mean_motion_rev_day": 15.27581347
    },
    {
      "epoch": "2026-03-30T04:10:29.536608Z",
      "apogee_km": 483.97806570117245,
      "perigee_km": 482.0898714506202,
      "latitude_deg": -1.0909255186249417e-05,
      "longitude_deg": -105.94716191479375,
      "height_km": 482.8630238249983,
      "semi_major_axis_km": 6861.170968575896,
      "eccentricity": 0.0001376,
      "inclination_deg": 42.9991,
      "raan_deg": 144.2454,
      "arg_perigee_deg": 266.8133,
      "mean_anomaly_deg": 93.2561,
      "mean_motion_rev_day": 15.27585052
    },
    {
      "epoch": "2026-03-30T13:35:26.421792Z",
      "apogee_km": 484.05196582790086,
      "perigee_km": 482.12121750920596,
      "latitude_deg": -3.428632508847249e-05,
      "longitude_deg": 110.21339878508249,
      "height_km": 482.900536741608,
      "semi_major_axis_km": 6861.223591668553,
      "eccentricity": 0.0001407,
      "inclination_deg": 43.0008,
      "raan_deg": 142.0297,
      "arg_perigee_deg": 267.7946,
      "mean_anomaly_deg": 92.2744,
      "mean_motion_rev_day": 15.27567478
    },
    {
      "epoch": "2026-03-30T19:52:03.989280Z",
      "apogee_km": 483.9724346277653,
      "perigee_km": 482.1697208174237,
      "latitude_deg": -3.7909062740247086e-05,
      "longitude_deg": 14.322472603530915,
      "height_km": 482.917804221969,
      "semi_major_axis_km": 6861.208077722594,
      "eccentricity": 0.00013137,
      "inclination_deg": 43.002,
      "raan_deg": 140.5531,
      "arg_perigee_deg": 265.5534,
      "mean_anomaly_deg": 94.5167,
      "mean_motion_rev_day": 15.27572659
    },
    {
      "epoch": "2026-03-31T13:07:47.521920Z",
      "apogee_km": 484.04145041818174,
      "perigee_km": 482.07365981977364,
      "latitude_deg": -3.1417611695454916e-05,
      "longitude_deg": 110.6199655491113,
      "height_km": 482.8754039924578,
      "semi_major_axis_km": 6861.194555118977,
      "eccentricity": 0.0001434,
      "inclination_deg": 43.0024,
      "raan_deg": 136.4909,
      "arg_perigee_deg": 267.6202,
      "mean_anomaly_deg": 92.4485,
      "mean_motion_rev_day": 15.27577175
    },
    {
      "epoch": "2026-04-01T18:56:45.858624Z",
      "apogee_km": 484.040178677923,
      "perigee_km": 482.05455192260433,
      "latitude_deg": -5.935987447989524e-05,
      "longitude_deg": 15.136059746217633,
      "height_km": 482.7960968236241,
      "semi_major_axis_km": 6861.184365300263,
      "eccentricity": 0.0001447,
      "inclination_deg": 43.0014,
      "raan_deg": 129.4746,
      "arg_perigee_deg": 271.6262,
      "mean_anomaly_deg": 88.4423,
      "mean_motion_rev_day": 15.27580578
    },
    {
      "epoch": "2026-04-02T18:29:06.054144Z",
      "apogee_km": 484.0083658073272,
      "perigee_km": 482.02919681065123,
      "latitude_deg": -2.8176122943337544e-05,
      "longitude_deg": 15.545735750604244,
      "height_km": 482.76544410147795,
      "semi_major_axis_km": 6861.1557813089885,
      "eccentricity": 0.00014423,
      "inclination_deg": 43.001,
      "raan_deg": 123.9351,
      "arg_perigee_deg": 271.7483,
      "mean_anomaly_deg": 88.3203,
      "mean_motion_rev_day": 15.27590124
    },
    {
      "epoch": "2026-04-03T11:44:49.070976Z",
      "apogee_km": 484.363513491905,
      "perigee_km": 481.7039864857943,
      "latitude_deg": -8.053711235968877e-06,
      "longitude_deg": 111.84459747316639,
      "height_km": 482.9062117599108,
      "semi_major_axis_km": 6861.170749988849,
      "eccentricity": 0.00019381,
      "inclination_deg": 43.0014,
      "raan_deg": 119.8721,
      "arg_perigee_deg": 265.8948,
      "mean_anomaly_deg": 94.1682,
      "mean_motion_rev_day": 15.27585125
    },
    {
      "epoch": "2026-04-04T11:17:09.962016Z",
      "apogee_km": 484.04170724103824,
      "perigee_km": 482.0903810952768,
      "latitude_deg": -2.0474967706189492e-06,
      "longitude_deg": 112.25323941173532,
      "height_km": 482.9062567816758,
      "semi_major_axis_km": 6861.203044168157,
      "eccentricity": 0.0001422,
      "inclination_deg": 43.0019,
      "raan_deg": 114.3345,
      "arg_perigee_deg": 266.2806,
      "mean_anomaly_deg": 93.7883,
      "mean_motion_rev_day": 15.2757434
    },
    {
      "epoch": "2026-04-05T07:41:12.782112Z",
      "apogee_km": 484.0458511490824,
      "perigee_km": 482.1384294480795,
      "latitude_deg": -2.9517998503795707e-05,
      "longitude_deg": 160.60392823889453,
      "height_km": 482.9011693274418,
      "semi_major_axis_km": 6861.229140298581,
      "eccentricity": 0.000139,
      "inclination_deg": 43.0016,
      "raan_deg": 109.5348,
      "arg_perigee_deg": 268.0677,
      "mean_anomaly_deg": 92.0015,
      "mean_motion_rev_day": 15.27565625
    },
    {
      "epoch": "2026-04-06T07:13:32.963808Z",
      "apogee_km": 483.9762668168951,
      "perigee_km": 482.0517139640897,
      "latitude_deg": 5.4069167740521306e-06,
      "longitude_deg": 161.01316322868573,
      "height_km": 482.7969204372001,
      "semi_major_axis_km": 6861.150990390492,
      "eccentricity": 0.00014025,
      "inclination_deg": 43.002,
      "raan_deg": 103.9948,
      "arg_perigee_deg": 269.6424,
      "mean_anomaly_deg": 90.4267,
      "mean_motion_rev_day": 15.27591724
    },
    {
      "epoch": "2026-04-07T06:45:54.444960Z",
      "apogee_km": 483.98806724405677,
      "perigee_km": 482.14693162867843,
      "latitude_deg": -4.07930302651408e-06,
      "longitude_deg": 161.4184210391354,
      "height_km": 482.8871527215618,
      "semi_major_axis_km": 6861.204499436368,
      "eccentricity": 0.00013417,
      "inclination_deg": 43.0025,
      "raan_deg": 98.4563,
      "arg_perigee_deg": 267.3397,
      "mean_anomaly_deg": 92.7301,
      "mean_motion_rev_day": 15.27573854
    },
    {
      "epoch": "2026-04-08T07:52:24.619872Z",
      "apogee_km": 483.84402784053873,
      "perigee_km": 482.2298680575441,
      "latitude_deg": 4.9929801456454075e-06,
      "longitude_deg": 137.85403418970176,
      "height_km": 482.9837399798586,
      "semi_major_axis_km": 6861.173947949041,
      "eccentricity": 0.00011763,
      "inclination_deg": 43.0046,
      "raan_deg": 92.5488,
      "arg_perigee_deg": 257.8539,
      "mean_anomaly_deg": 102.2181,
      "mean_motion_rev_day": 15.27584057
    },
    {
      "epoch": "2026-04-09T07:24:45.384768Z",
      "apogee_km": 483.9643732703653,
      "perigee_km": 482.15274319517084,
      "latitude_deg": 2.5952926871912044e-05,
      "longitude_deg": 138.26091662380026,
      "height_km": 482.88622364272123,
      "semi_major_axis_km": 6861.195558232768,
      "eccentricity": 0.00013202,
      "inclination_deg": 43.0041,
      "raan_deg": 87.0089,
      "arg_perigee_deg": 266.7987,
      "mean_anomaly_deg": 93.2714,
      "mean_motion_rev_day": 15.2757684
    },
    {
      "epoch": "2026-04-10T05:22:55.761600Z",
      "apogee_km": 483.9501469439265,
      "perigee_km": 482.0963986614206,
      "latitude_deg": -8.16193783492536e-06,
      "longitude_deg": 162.64588358011693,
      "height_km": 482.85251830526573,
      "semi_major_axis_km": 6861.160272802674,
      "eccentricity": 0.00013509,
      "inclination_deg": 43.0042,
      "raan_deg": 81.8394,
      "arg_perigee_deg": 266.7761,
      "mean_anomaly_deg": 93.2936,
      "mean_motion_rev_day": 15.27588624
    },
    {
      "epoch": "2026-04-11T06:29:27.616992Z",
      "apogee_km": 484.2157178397647,
      "perigee_km": 482.0022798805312,
      "latitude_deg": 1.4402681180863738e-06,
      "longitude_deg": 139.07507697195072,
      "height_km": 482.9345168428606,
      "semi_major_axis_km": 6861.245998860148,
      "eccentricity": 0.0001613,
      "inclination_deg": 43.0026,
      "raan_deg": 75.9325,
      "arg_perigee_deg": 267.4956,
      "mean_anomaly_deg": 92.5711,
      "mean_motion_rev_day": 15.27559995
    },
    {
      "epoch": "2026-04-13T05:34:09.400800Z",
      "apogee_km": 484.26040258232206,
      "perigee_km": 481.9515943133447,
      "latitude_deg": -3.6990557066545395e-05,
      "longitude_deg": 139.89069930424753,
      "height_km": 482.73059365484517,
      "semi_major_axis_km": 6861.242998447833,
      "eccentricity": 0.00016825,
      "inclination_deg": 43.0051,
      "raan_deg": 64.8557,
      "arg_perigee_deg": 277.6121,
      "mean_anomaly_deg": 82.4539,
      "mean_motion_rev_day": 15.27560997
    },
    {
      "epoch": "2026-04-14T08:14:48.672096Z",
      "apogee_km": 484.2249652613991,
      "perigee_km": 481.8940795788021,
      "latitude_deg": -4.7901472826479664e-05,
      "longitude_deg": 92.35404915207215,
      "height_km": 482.68339254256364,
      "semi_major_axis_km": 6861.1965224201,
      "eccentricity": 0.00016986,
      "inclination_deg": 43.005,
      "raan_deg": 58.5783,
      "arg_perigee_deg": 277.5756,
      "mean_anomaly_deg": 82.4902,
      "mean_motion_rev_day": 15.27576518
    },
    {
      "epoch": "2026-04-15T04:38:50.421696Z",
      "apogee_km": 484.1383189000435,
      "perigee_km": 481.9327263809155,
      "latitude_deg": -3.402204820816021e-05,
      "longitude_deg": 140.70775713951588,
      "height_km": 482.80886548945415,
      "semi_major_axis_km": 6861.17252264048,
      "eccentricity": 0.00016073,
      "inclination_deg": 43.0051,
      "raan_deg": 53.7771,
      "arg_perigee_deg": 270.213,
      "mean_anomaly_deg": 89.8537,
      "mean_motion_rev_day": 15.27584533
    },
    {
      "epoch": "2026-04-16T05:45:20.708928Z",
      "apogee_km": 484.18092756361875,
      "perigee_km": 482.01689375739716,
      "latitude_deg": -2.0612534032661718e-06,
      "longitude_deg": 117.14153059978135,
      "height_km": 482.9039513121442,
      "semi_major_axis_km": 6861.235910660508,
      "eccentricity": 0.0001577,
      "inclination_deg": 43.0055,
      "raan_deg": 47.8682,
      "arg_perigee_deg": 268.5392,
      "mean_anomaly_deg": 91.5279,
      "mean_motion_rev_day": 15.27563364
    },
    {
      "epoch": "2026-04-17T05:17:41.173152Z",
      "apogee_km": 484.13918303569426,
      "perigee_km": 481.9466243856641,
      "latitude_deg": 2.5958898319322508e-05,
      "longitude_deg": 117.55038145508253,
      "height_km": 482.83074091142043,
      "semi_major_axis_km": 6861.179903710679,
      "eccentricity": 0.00015978,
      "inclination_deg": 43.0069,
      "raan_deg": 42.329,
      "arg_perigee_deg": 269.4664,
      "mean_anomaly_deg": 90.6005,
      "mean_motion_rev_day": 15.27582068
    },
    {
      "epoch": "2026-04-18T04:50:01.756608Z",
      "apogee_km": 484.326498123889,
      "perigee_km": 481.69661988122243,
      "latitude_deg": 3.452448456197166e-05,
      "longitude_deg": 117.96031261573667,
      "height_km": 482.93625344905564,
      "semi_major_axis_km": 6861.148559002555,
      "eccentricity": 0.00019165,
      "inclination_deg": 43.0069,
      "raan_deg": 36.7914,
      "arg_perigee_deg": 263.588,
      "mean_anomaly_deg": 96.4754,
      "mean_motion_rev_day": 15.27592536
    }
  ]
}